COMMENT,ORIGINATOR,NORAD_CAT_ID,OBJECT_NAME,OBJECT_TYPE,CLASSIFICATION_TYPE,INTLDES,EPOCH,EPOCH_MICROSECONDS,MEAN_MOTION,ECCENTRICITY,INCLINATION,RA_OF_ASC_NODE,ARG_OF_PERICENTER,MEAN_ANOMALY,EPHEMERIS_TYPE,ELEMENT_SET_NO,REV_AT_EPOCH,BSTAR,MEAN_MOTION_DOT,MEAN_MOTION_DDOT,FILE,TLE_LINE0,TLE_LINE1,TLE_LINE2,OBJECT_ID,OBJECT_NUMBER,SEMIMAJOR_AXIS,PERIOD,APOGEE,PERIGEE,DECAYED
"GENERATED VIA SPACETRACK.ORG API","18 SPCS","48884","SPACEBEE-101","PAYLOAD","U","21059F","2023-12-11 22:27:13","638528","15.51176996","0.0003851","97.6072","129.1835","341.2646","18.8463","0","999","13671","0.0009751","0.00057211","0","4133725","0 SPACEBEE-101","1 48884U 21059F   23345.93557452  .00057211  00000-0  97510-3 0  9997","2 48884  97.6072 129.1835 0003851 341.2646  18.8463 15.51176996136715","2021-059F","48884","6791.425","92.833","415.906","410.675","0"
"GENERATED VIA SPACETRACK.ORG API","18 SPCS","48884","SPACEBEE-101","PAYLOAD","U","21059F","2023-12-12 09:17:28","217760","15.51229583","0.0003786","97.6074","129.6606","339.4918","20.6181","0","999","13678","0.00091442","0.0005372","0","4134660","0 SPACEBEE-101","1 48884U 21059F   23346.38713215  .00053720  00000-0  91442-3 0  9997","2 48884  97.6074 129.6606 0003786 339.4918  20.6181 15.51229583136782","2021-059F","48884","6791.272","92.830","415.708","410.566","0"
"GENERATED VIA SPACETRACK.ORG API","18 SPCS","48884","SPACEBEE-101","PAYLOAD","U","21059F","2023-12-12 21:40:34","599072","15.51300627","0.0003907","97.6074","130.2067","338.3291","21.7795","0","999","13686","0.0012967","0.00076636","0","4134943","0 SPACEBEE-101","1 48884U 21059F   23346.90317823  .00076636  00000-0  12967-2 0  9995","2 48884  97.6074 130.2067 0003907 338.3291  21.7795 15.51300627136869","2021-059F","48884","6791.065","92.825","415.583","410.276","0"
"GENERATED VIA SPACETRACK.ORG API","18 SPCS","48884","SPACEBEE-101","PAYLOAD","U","21059F","2023-12-13 02:19:13","946880","15.51325723","0.0003876","97.6074","130.411","337.2903","22.8176","0","999","13689","0.0012525","0.00074062","0","4134970","0 SPACEBEE-101","1 48884U 21059F   23347.09668920  .00074062  00000-0  12525-2 0  9994","2 48884  97.6074 130.4110 0003876 337.2903  22.8176 15.51325723136895","2021-059F","48884","6790.991","92.824","415.489","410.224","0"
"GENERATED VIA SPACETRACK.ORG API","18 SPCS","48884","SPACEBEE-101","PAYLOAD","U","21059F","2023-12-13 08:30:45","984960","15.51356061","0.000379","97.6075","130.6837","336.2743","23.8333","0","999","13693","0.00089449","0.00052778","0","4135433","0 SPACEBEE-101","1 48884U 21059F   23347.35469890  .00052778  00000-0  89449-3 0  9998","2 48884  97.6075 130.6837 0003790 336.2743  23.8333 15.51356061136930","2021-059F","48884","6790.903","92.822","415.342","410.194","0"
"GENERATED VIA SPACETRACK.ORG API","18 SPCS","48884","SPACEBEE-101","PAYLOAD","U","21059F","2023-12-13 08:30:45","984960","15.51356061","0.000379","97.6075","130.6837","336.2743","23.8333","0","999","13693","0.00089449","0.00052778","0","4135519","0 SPACEBEE-101","1 48884U 21059F   23347.35469890  .00052778  00000-0  89449-3 0  9998","2 48884  97.6075 130.6837 0003790 336.2743  23.8333 15.51356061136930","2021-059F","48884","6790.903","92.822","415.342","410.194","0"
"GENERATED VIA SPACETRACK.ORG API","18 SPCS","48884","SPACEBEE-101","PAYLOAD","U","21059F","2023-12-13 22:26:41","224704","15.5143958","0.0003888","97.6077","131.2981","335.5139","24.5927","0","999","13702","0.0011212","0.00066493","0","4135688","0 SPACEBEE-101","1 48884U 21059F   23347.93519936  .00066493  00000-0  11212-2 0  9990","2 48884  97.6077 131.2981 0003888 335.5139  24.5927 15.51439580137024","2021-059F","48884","6790.659","92.817","415.164","409.884","0"
"GENERATED VIA SPACETRACK.ORG API","18 SPCS","48884","SPACEBEE-101","PAYLOAD","U","21059F","2023-12-13 22:26:41","224704","15.5143958","0.0003888","97.6077","131.2981","335.5139","24.5927","0","999","13702","0.0011212","0.00066493","0","4135716","0 SPACEBEE-101","1 48884U 21059F   23347.93519936  .00066493  00000-0  11212-2 0  9990","2 48884  97.6077 131.2981 0003888 335.5139  24.5927 15.51439580137024","2021-059F","48884","6790.659","92.817","415.164","409.884","0"
"GENERATED VIA SPACETRACK.ORG API","18 SPCS","48884","SPACEBEE-101","PAYLOAD","U","21059F","2023-12-14 09:16:48","805536","15.51519936","0.0003829","97.6078","131.7754","333.692","26.4137","0","999","13709","0.0012798","0.00076223","0","4135982","0 SPACEBEE-101","1 48884U 21059F   23348.38667599  .00076223  00000-0  12798-2 0  9991","2 48884  97.6078 131.7754 0003829 333.6920  26.4137 15.51519936137095","2021-059F","48884","6790.425","92.812","414.890","409.690","0"
"GENERATED VIA SPACETRACK.ORG API","18 SPCS","48884","SPACEBEE-101","PAYLOAD","U","21059F","2023-12-14 09:16:48","805536","15.51519936","0.0003829","97.6078","131.7754","333.692","26.4137","0","999","13709","0.0012798","0.00076223","0","4136178","0 SPACEBEE-101","1 48884U 21059F   23348.38667599  .00076223  00000-0  12798-2 0  9991","2 48884  97.6078 131.7754 0003829 333.6920  26.4137 15.51519936137095","2021-059F","48884","6790.425","92.812","414.890","409.690","0"
"GENERATED VIA SPACETRACK.ORG API","18 SPCS","48884","SPACEBEE-101","PAYLOAD","U","21059F","2023-12-14 21:39:46","504512","15.51600853","0.0004063","97.6082","132.322","331.728","28.3751","0","999","13717","0.00087771","0.00052237","0","4136513","0 SPACEBEE-101","1 48884U 21059F   23348.90262158  .00052237  00000-0  87771-3 0  9994","2 48884  97.6082 132.3220 0004063 331.7280  28.3751 15.51600853137175","2021-059F","48884","6790.189","92.807","414.812","409.295","0"
"GENERATED VIA SPACETRACK.ORG API","18 SPCS","48884","SPACEBEE-101","PAYLOAD","U","21059F","2023-12-15 08:29:49","996032","15.51670525","0.0003956","97.6083","132.7995","330.2425","29.8601","0","999","13724","0.00075718","0.00045121","0","4137031","0 SPACEBEE-101","1 48884U 21059F   23349.35405088  .00045121  00000-0  75718-3 0  9997","2 48884  97.6083 132.7995 0003956 330.2425  29.8601 15.51670525137245","2021-059F","48884","6789.985","92.803","414.536","409.164","0"
"GENERATED VIA SPACETRACK.ORG API","18 SPCS","48884","SPACEBEE-101","PAYLOAD","U","21059F","2023-12-15 08:29:49","996032","15.51670525","0.0003956","97.6083","132.7995","330.2425","29.8601","0","999","13724","0.00075718","0.00045121","0","4137062","0 SPACEBEE-101","1 48884U 21059F   23349.35405088  .00045121  00000-0  75718-3 0  9997","2 48884  97.6083 132.7995 0003956 330.2425  29.8601 15.51670525137245","2021-059F","48884","6789.985","92.803","414.536","409.164","0"
"GENERATED VIA SPACETRACK.ORG API","18 SPCS","48884","SPACEBEE-101","PAYLOAD","U","21059F","2023-12-15 22:25:34","836672","15.51762574","0.0004035","97.6082","133.4139","329.1912","30.9102","0","999","13733","0.0010799","0.00064768","0","4137270","0 SPACEBEE-101","1 48884U 21059F   23349.93443098  .00064768  00000-0  10799-2 0  9999","2 48884  97.6082 133.4139 0004035 329.1912  30.9102 15.51762574137334","2021-059F","48884","6789.717","92.798","414.321","408.842","0"
"GENERATED VIA SPACETRACK.ORG API","18 SPCS","48884","SPACEBEE-101","PAYLOAD","U","21059F","2023-12-15 22:25:34","836672","15.51762574","0.0004035","97.6082","133.4139","329.1912","30.9102","0","999","13733","0.0010799","0.00064768","0","4137302","0 SPACEBEE-101","1 48884U 21059F   23349.93443098  .00064768  00000-0  10799-2 0  9999","2 48884  97.6082 133.4139 0004035 329.1912  30.9102 15.51762574137334","2021-059F","48884","6789.717","92.798","414.321","408.842","0"
"GENERATED VIA SPACETRACK.ORG API","18 SPCS","48884","SPACEBEE-101","PAYLOAD","U","21059F","2023-12-16 09:15:34","206912","15.51847824","0.0003996","97.6083","133.8912","327.4006","32.6999","0","999","13740","0.0013427","0.00080963","0","4137599","0 SPACEBEE-101","1 48884U 21059F   23350.38581258  .00080963  00000-0  13427-2 0  9997","2 48884  97.6083 133.8912 0003996 327.4006  32.6999 15.51847824137401","2021-059F","48884","6789.468","92.793","414.046","408.620","0"
"GENERATED VIA SPACETRACK.ORG API","18 SPCS","48884","SPACEBEE-101","PAYLOAD","U","21059F","2023-12-16 09:15:34","206912","15.51847824","0.0003996","97.6083","133.8912","327.4006","32.6999","0","999","13740","0.0013427","0.00080963","0","4137834","0 SPACEBEE-101","1 48884U 21059F   23350.38581258  .00080963  00000-0  13427-2 0  9997","2 48884  97.6083 133.8912 0003996 327.4006  32.6999 15.51847824137401","2021-059F","48884","6789.468","92.793","414.046","408.620","0"
"GENERATED VIA SPACETRACK.ORG API","18 SPCS","48884","SPACEBEE-101","PAYLOAD","U","21059F","2023-12-16 21:38:22","673184","15.51925816","0.0004079","97.6082","134.4377","326.3504","33.7488","0","999","13748","0.0012008","0.00072522","0","4138106","0 SPACEBEE-101","1 48884U 21059F   23350.90165131  .00072522  00000-0  12008-2 0  9999","2 48884  97.6082 134.4377 0004079 326.3504  33.7488 15.51925816137487","2021-059F","48884","6789.241","92.788","413.875","408.336","0"
"GENERATED VIA SPACETRACK.ORG API","18 SPCS","48884","SPACEBEE-101","PAYLOAD","U","21059F","2023-12-17 08:28:18","32736","15.52011559","0.000403","97.6084","134.9151","325.768","34.3311","0","999","13755","0.0014498","0.0008802","0","4138654","0 SPACEBEE-101","1 48884U 21059F   23351.35298649  .00088020  00000-0  14498-2 0  9995","2 48884  97.6084 134.9151 0004030 325.7680  34.3311 15.52011559137550","2021-059F","48884","6788.991","92.783","413.592","408.120","0"
"GENERATED VIA SPACETRACK.ORG API","18 SPCS","48884","SPACEBEE-101","PAYLOAD","U","21059F","2023-12-17 22:23:51","712224","15.52130005","0.0004388","97.6079","135.5296","327.264","32.8339","0","999","13764","0.0016671","0.0010184","0","4138912","0 SPACEBEE-101","1 48884U 21059F   23351.93323741  .00101840  00000-0  16671-2 0  9992","2 48884  97.6079 135.5296 0004388 327.2640  32.8339 15.52130005137641","2021-059F","48884","6788.645","92.776","413.489","407.531","0"
